STARLINK-3774           
1 52680U 22053AA  22230.91667824  .00036264  00000+0  22856-2 0  9990
2 52680  53.2142 214.5390 0001966  58.8192 246.6842 15.08828677 14671
STARLINK-4068           
1 52681U 22053AB  22230.91667824  .00039361  00000+0  24775-2 0  9994
2 52681  53.2141 214.5329 0002277  42.6892   2.7993 15.08838075 14678
STARLINK-4017           
1 52682U 22053AC  22230.91667824  .00039233  00000+0  24708-2 0  9999
2 52682  53.2145 214.5337 0002101  43.6164 301.8891 15.08820354 14672
STARLINK-4039           
1 52683U 22053AD  22231.16668981 -.00047133  00000+0 -29610-2 0  9990
2 52683  53.2147 213.4115 0002376  46.0931 318.1849 15.08860581 14715
STARLINK-4014           
1 52684U 22053AE  22231.16668981 -.00041344  00000+0 -25925-2 0  9994
2 52684  53.2152 213.4132 0002252  50.7792 233.4808 15.08867405 14717
STARLINK-4029           
1 52685U 22053AF  22231.25001157 -.00002922  00000+0 -16555-3 0  9990
2 52685  53.2157 213.0275 0002553  46.6622  90.4465 15.08837463 14730
STARLINK-4005           
1 52686U 22053AG  22230.91667824 -.00007186  00000+0 -43363-3 0  9996
2 52686  53.2154 214.5336 0002288  51.5159  14.0007 15.08855107 14679
STARLINK-3981           
1 52687U 22053AH  22231.16668981 -.00023937  00000+0 -14898-2 0  9992
2 52687  53.2166 213.4004 0002334  45.6649  18.5158 15.08863687 14716
STARLINK-4032           
1 52688U 22053AJ  22231.25001157 -.00004516  00000+0 -26580-3 0  9993
2 52688  53.2159 213.0276 0002371  41.3497  70.5627 15.08837557 14728
STARLINK-4078           
1 52689U 22053AK  22231.16668981 -.00039097  00000+0 -24499-2 0  9996
2 52689  53.2168 213.4016 0002101  51.5003  72.7403 15.08867253 14724
STARLINK-4035           
1 52690U 22053AL  22230.91667824  .00035886  00000+0  22618-2 0  9996
2 52690  53.2167 214.5231 0002395  52.5296  52.9665 15.08833398 14684
STARLINK-3945           
1 52691U 22053AM  22230.91667824  .00032467  00000+0  20486-2 0  9990
2 52691  53.2162 214.5219 0001999  53.9423 171.5108 15.08840685 14689
STARLINK-3993           
1 52692U 22053AN  22231.16668981 -.00032632  00000+0 -20407-2 0  9993
2 52692  53.2160 213.4001 0002072  54.1840  30.0687 15.08853285 14720
STARLINK-3946           
1 52693U 22053AP  22230.91667824 -.00006039  00000+0 -36145-3 0  9990
2 52693  53.2179 214.5193 0002040  55.2583 210.2435 15.08854289  1304
STARLINK-4072           
1 52694U 22053AQ  22231.16668981 -.00039835  00000+0 -24968-2 0  9993
2 52694  53.2158 213.4000 0001875  52.0844  52.1588 15.08867047 14725
STARLINK-4041           
1 52695U 22053AR  22230.91667824  .00035028  00000+0  22087-2 0  9999
2 52695  53.2172 219.5242 0002280  57.2532 175.5089 15.08828272 14610
