[{"OBJECT_NAME":"STARLINK-3774","OBJECT_ID":"2022-053AA","EPOCH":"2022-08-18T22:00:00.999936","MEAN_MOTION":15.08828677,"ECCENTRICITY":0.0001966,"INCLINATION":53.2142,"RA_OF_ASC_NODE":214.539,"ARG_OF_PERICENTER":58.8192,"MEAN_ANOMALY":246.6842,"EPHEMERIS_TYPE":0,"CLASSIFICATION_TYPE":"U","NORAD_CAT_ID":52680,"ELEMENT_SET_NO":999,"REV_AT_EPOCH":1467,"BSTAR":0.0022856,"MEAN_MOTION_DOT":0.00036264,"MEAN_MOTION_DDOT":0},{"OBJECT_NAME":"STARLINK-4068","OBJECT_ID":"2022-053AB","EPOCH":"2022-08-18T22:00:00.999936","MEAN_MOTION":15.08838075,"ECCENTRICITY":0.0002277,"INCLINATION":53.2141,"RA_OF_ASC_NODE":214.5329,"ARG_OF_PERICENTER":42.6892,"MEAN_ANOMALY":2.7993,"EPHEMERIS_TYPE":0,"CLASSIFICATION_TYPE":"U","NORAD_CAT_ID":52681,"ELEMENT_SET_NO":999,"REV_AT_EPOCH":1467,"BSTAR":0.0024775,"MEAN_MOTION_DOT":0.00039361,"MEAN_MOTION_DDOT":0},{"OBJECT_NAME":"STARLINK-4017","OBJECT_ID":"2022-053AC","EPOCH":"2022-08-18T22:00:00.999936","MEAN_MOTION":15.08820354,"ECCENTRICITY":0.0002101,"INCLINATION":53.2145,"RA_OF_ASC_NODE":214.5337,"ARG_OF_PERICENTER":43.6164,"MEAN_ANOMALY":301.8891,"EPHEMERIS_TYPE":0,"CLASSIFICATION_TYPE":"U","NORAD_CAT_ID":52682,"ELEMENT_SET_NO":999,"REV_AT_EPOCH":1467,"BSTAR":0.0024708,"MEAN_MOTION_DOT":0.00039233,"MEAN_MOTION_DDOT":0},{"OBJECT_NAME":"STARLINK-4039","OBJECT_ID":"2022-053AD","EPOCH":"2022-08-19T04:00:01.999584","MEAN_MOTION":15.08860581,"ECCENTRICITY":0.0002376,"INCLINATION":53.2147,"RA_OF_ASC_NODE":213.4115,"ARG_OF_PERICENTER":46.0931,"MEAN_ANOMALY":318.1849,"EPHEMERIS_TYPE":0,"CLASSIFICATION_TYPE":"U","NORAD_CAT_ID":52683,"ELEMENT_SET_NO":999,"REV_AT_EPOCH":1471,"BSTAR":-0.002961,"MEAN_MOTION_DOT":-0.00047133,"MEAN_MOTION_DDOT":0},{"OBJECT_NAME":"STARLINK-4014","OBJECT_ID":"2022-053AE","EPOCH":"2022-08-19T04:00:01.999584","MEAN_MOTION":15.08867405,"ECCENTRICITY":0.0002252,"INCLINATION":53.2152,"RA_OF_ASC_NODE":213.4132,"ARG_OF_PERICENTER":50.7792,"MEAN_ANOMALY":233.4808,"EPHEMERIS_TYPE":0,"CLASSIFICATION_TYPE":"U","NORAD_CAT_ID":52684,"ELEMENT_SET_NO":999,"REV_AT_EPOCH":1471,"BSTAR":-0.0025925,"MEAN_MOTION_DOT":-0.00041344,"MEAN_MOTION_DDOT":0},{"OBJECT_NAME":"STARLINK-4029","OBJECT_ID":"2022-053AF","EPOCH":"2022-08-19T06:00:00.999648","MEAN_MOTION":15.08837463,"ECCENTRICITY":0.0002553,"INCLINATION":53.2157,"RA_OF_ASC_NODE":213.0275,"ARG_OF_PERICENTER":46.6622,"MEAN_ANOMALY":90.4465,"EPHEMERIS_TYPE":0,"CLASSIFICATION_TYPE":"U","NORAD_CAT_ID":52685,"ELEMENT_SET_NO":999,"REV_AT_EPOCH":1473,"BSTAR":-0.00016555,"MEAN_MOTION_DOT":-2.922e-5,"MEAN_MOTION_DDOT":0},{"OBJECT_NAME":"STARLINK-4005","OBJECT_ID":"2022-053AG","EPOCH":"2022-08-18T22:00:00.999936","MEAN_MOTION":15.08855107,"ECCENTRICITY":0.0002288,"INCLINATION":53.2154,"RA_OF_ASC_NODE":214.5336,"ARG_OF_PERICENTER":51.5159,"MEAN_ANOMALY":14.0007,"EPHEMERIS_TYPE":0,"CLASSIFICATION_TYPE":"U","NORAD_CAT_ID":52686,"ELEMENT_SET_NO":999,"REV_AT_EPOCH":1467,"BSTAR":-0.00043363,"MEAN_MOTION_DOT":-7.186e-5,"MEAN_MOTION_DDOT":0},{"OBJECT_NAME":"STARLINK-3981","OBJECT_ID":"2022-053AH","EPOCH":"2022-08-19T04:00:01.999584","MEAN_MOTION":15.08863687,"ECCENTRICITY":0.0002334,"INCLINATION":53.2166,"RA_OF_ASC_NODE":213.4004,"ARG_OF_PERICENTER":45.6649,"MEAN_ANOMALY":18.5158,"EPHEMERIS_TYPE":0,"CLASSIFICATION_TYPE":"U","NORAD_CAT_ID":52687,"ELEMENT_SET_NO":999,"REV_AT_EPOCH":1471,"BSTAR":-0.0014898,"MEAN_MOTION_DOT":-0.00023937,"MEAN_MOTION_DDOT":0},{"OBJECT_NAME":"STARLINK-4032","OBJECT_ID":"2022-053AJ","EPOCH":"2022-08-19T06:00:00.999648","MEAN_MOTION":15.08837557,"ECCENTRICITY":0.0002371,"INCLINATION":53.2159,"RA_OF_ASC_NODE":213.0276,"ARG_OF_PERICENTER":41.3497,"MEAN_ANOMALY":70.5627,"EPHEMERIS_TYPE":0,"CLASSIFICATION_TYPE":"U","NORAD_CAT_ID":52688,"ELEMENT_SET_NO":999,"REV_AT_EPOCH":1472,"BSTAR":-0.0002658,"MEAN_MOTION_DOT":-4.516e-5,"MEAN_MOTION_DDOT":0},{"OBJECT_NAME":"STARLINK-4078","OBJECT_ID":"2022-053AK","EPOCH":"2022-08-19T04:00:01.999584","MEAN_MOTION":15.08867253,"ECCENTRICITY":0.0002101,"INCLINATION":53.2168,"RA_OF_ASC_NODE":213.4016,"ARG_OF_PERICENTER":51.5003,"MEAN_ANOMALY":72.7403,"EPHEMERIS_TYPE":0,"CLASSIFICATION_TYPE":"U","NORAD_CAT_ID":52689,"ELEMENT_SET_NO":999,"REV_AT_EPOCH":1472,"BSTAR":-0.0024499,"MEAN_MOTION_DOT":-0.00039097,"MEAN_MOTION_DDOT":0},{"OBJECT_NAME":"STARLINK-4035","OBJECT_ID":"2022-053AL","EPOCH":"2022-08-18T22:00:00.999936","MEAN_MOTION":15.08833398,"ECCENTRICITY":0.0002395,"INCLINATION":53.2167,"RA_OF_ASC_NODE":214.5231,"ARG_OF_PERICENTER":52.5296,"MEAN_ANOMALY":52.9665,"EPHEMERIS_TYPE":0,"CLASSIFICATION_TYPE":"U","NORAD_CAT_ID":52690,"ELEMENT_SET_NO":999,"REV_AT_EPOCH":1468,"BSTAR":0.0022618,"MEAN_MOTION_DOT":0.00035886,"MEAN_MOTION_DDOT":0},{"OBJECT_NAME":"STARLINK-3945","OBJECT_ID":"2022-053AM","EPOCH":"2022-08-18T22:00:00.999936","MEAN_MOTION":15.08840685,"ECCENTRICITY":0.0001999,"INCLINATION":53.2162,"RA_OF_ASC_NODE":214.5219,"ARG_OF_PERICENTER":53.9423,"MEAN_ANOMALY":171.5108,"EPHEMERIS_TYPE":0,"CLASSIFICATION_TYPE":"U","NORAD_CAT_ID":52691,"ELEMENT_SET_NO":999,"REV_AT_EPOCH":1468,"BSTAR":0.0020486,"MEAN_MOTION_DOT":0.00032467,"MEAN_MOTION_DDOT":0},{"OBJECT_NAME":"STARLINK-3993","OBJECT_ID":"2022-053AN","EPOCH":"2022-08-19T04:00:01.999584","MEAN_MOTION":15.08853285,"ECCENTRICITY":0.0002072,"INCLINATION":53.216,"RA_OF_ASC_NODE":213.4001,"ARG_OF_PERICENTER":54.184,"MEAN_ANOMALY":30.0687,"EPHEMERIS_TYPE":0,"CLASSIFICATION_TYPE":"U","NORAD_CAT_ID":52692,"ELEMENT_SET_NO":999,"REV_AT_EPOCH":1472,"BSTAR":-0.0020407,"MEAN_MOTION_DOT":-0.00032632,"MEAN_MOTION_DDOT":0},{"OBJECT_NAME":"STARLINK-3946","OBJECT_ID":"2022-053AP","EPOCH":"2022-08-18T22:00:00.999936","MEAN_MOTION":15.08854289,"ECCENTRICITY":0.000204,"INCLINATION":53.2179,"RA_OF_ASC_NODE":214.5193,"ARG_OF_PERICENTER":55.2583,"MEAN_ANOMALY":210.2435,"EPHEMERIS_TYPE":0,"CLASSIFICATION_TYPE":"U","NORAD_CAT_ID":52693,"ELEMENT_SET_NO":999,"REV_AT_EPOCH":130,"BSTAR":-0.00036145,"MEAN_MOTION_DOT":-6.039e-5,"MEAN_MOTION_DDOT":0},{"OBJECT_NAME":"STARLINK-4072","OBJECT_ID":"2022-053AQ","EPOCH":"2022-08-19T04:00:01.999584","MEAN_MOTION":15.08867047,"ECCENTRICITY":0.0001875,"INCLINATION":53.2158,"RA_OF_ASC_NODE":213.4,"ARG_OF_PERICENTER":52.0844,"MEAN_ANOMALY":52.1588,"EPHEMERIS_TYPE":0,"CLASSIFICATION_TYPE":"U","NORAD_CAT_ID":52694,"ELEMENT_SET_NO":999,"REV_AT_EPOCH":1472,"BSTAR":-0.0024968,"MEAN_MOTION_DOT":-0.00039835,"MEAN_MOTION_DDOT":0},{"OBJECT_NAME":"STARLINK-4041","OBJECT_ID":"2022-053AR","EPOCH":"2022-08-18T22:00:00.999936","MEAN_MOTION":15.08828272,"ECCENTRICITY":0.000228,"INCLINATION":53.2172,"RA_OF_ASC_NODE":219.5242,"ARG_OF_PERICENTER":57.2532,"MEAN_ANOMALY":175.5089,"EPHEMERIS_TYPE":0,"CLASSIFICATION_TYPE":"U","NORAD_CAT_ID":52695,"ELEMENT_SET_NO":999,"REV_AT_EPOCH":1461,"BSTAR":0.0022087,"MEAN_MOTION_DOT":0.00035028,"MEAN_MOTION_DDOT":0}]